OBJECT_NAME,OBJECT_ID,EPOCH,MEAN_MOTION,ECCENTRICITY,INCLINATION,RA_OF_ASC_NODE,ARG_OF_PERICENTER,MEAN_ANOMALY,EPHEMERIS_TYPE,CLASSIFICATION_TYPE,NORAD_CAT_ID,ELEMENT_SET_NO,REV_AT_EPOCH,BSTAR,MEAN_MOTION_DOT,MEAN_MOTION_DDOT
QIANFAN-127,2026-104A,2026-06-11T12:20:00.492576,14.08092865,.00064016,88.9859,342.2493,71.2970,288.8908,0,U,69073,999,428,-.13466555E+1,-.2118885E-1,0
QIANFAN-128,2026-104B,2026-06-11T13:52:17.707872,14.07854115,.00096022,88.9856,342.2593,139.8148,220.3747,0,U,69074,999,428,-.93913437E+0,-.1491593E-1,0
QIANFAN-129,2026-104C,2026-06-11T12:42:00.150624,14.14160608,.00065714,88.9891,342.2303,116.3247,243.8615,0,U,69075,999,429,.27366939E-4,.66E-6,0
QIANFAN-130,2026-104D,2026-06-11T13:34:58.695168,14.05422800,.0004006,88.9857,342.2579,138.8152,221.3333,0,U,69076,999,428,-.13162113E+1,-.1983352E-1,0
QIANFAN-131,2026-104E,2026-06-11T12:44:23.405280,14.08883382,.0006121,88.9849,342.2512,71.3149,288.8698,0,U,69077,999,428,-.12900656E+1,-.2063334E-1,0
QIANFAN-132,2026-104F,2026-06-11T12:14:41.710272,14.04724118,.00075403,88.9854,342.2688,129.8307,230.3540,0,U,69078,999,427,-.14117808E+1,-.2092819E-1,0
QIANFAN-133,2026-104G,2026-06-11T11:44:48.490368,14.07316683,.00059013,88.9859,342.2656,96.8281,263.3574,0,U,69079,999,427,-.13418059E+1,-.2084453E-1,0
QIANFAN-134,2026-104H,2026-06-11T11:39:14.422176,14.06808753,.00073549,88.9855,342.2642,85.6513,274.5510,0,U,69080,999,427,-.13998762E+1,-.2149817E-1,0
QIANFAN-135,2026-104J,2026-06-11T13:09:44.678592,14.07519219,.00045532,88.9846,342.2545,81.4999,278.6700,0,U,69081,999,428,-.13721449E+1,-.2135233E-1,0
QIANFAN-136,2026-104K,2026-06-11T11:18:15.152544,14.07774584,.00076989,88.9855,342.2619,102.4583,257.7462,0,U,69082,999,427,-.13051921E+1,-.2047447E-1,0
QIANFAN-137,2026-104L,2026-06-11T14:09:23.152320,14.24280478,.00057017,88.9861,342.2233,122.4174,237.7570,0,U,69083,999,430,.68472182E-4,.173E-5,0
QIANFAN-138,2026-104M,2026-06-11T12:40:51.342528,14.10331148,.00043021,88.9741,342.2296,107.5614,252.6041,0,U,69084,999,428,.9020643E-5,.3E-6,0
QIANFAN-139,2026-104N,2026-06-11T12:31:44.088384,14.08484531,.00078487,88.9856,342.2511,70.8657,289.3376,0,U,69085,999,428,-.13134615E+1,-.2084236E-1,0
QIANFAN-140,2026-104P,2026-06-11T12:24:11.219328,14.08470343,.00068072,88.9860,342.2516,67.5350,292.6554,0,U,69086,999,428,-.13120054E+1,-.2081459E-1,0
QIANFAN-141,2026-104Q,2026-06-11T12:14:55.283712,14.09537158,.00097673,88.9857,342.2488,70.5119,289.7120,0,U,69087,999,428,-.12888652E+1,-.2084906E-1,0
QIANFAN-142,2026-104R,2026-06-11T13:45:02.060064,14.10638454,.00087077,88.9859,342.2398,65.8133,294.3961,0,U,69088,999,429,-.12170186E+1,-.2013704E-1,0
QIANFAN-143,2026-104S,2026-06-11T11:41:18.318048,14.10965880,.00085204,88.9854,342.2456,56.2136,303.9859,0,U,69089,999,428,-.12471102E+1,-.2071355E-1,0
QIANFAN-144,2026-104T,2026-06-11T11:52:57.904896,14.10592258,.00085396,88.9856,342.2471,44.9828,315.2047,0,U,69090,999,428,-.12824821E+1,-.21124E-1,0
ZHUQUE-2E R/B,2026-105A,2026-06-11T14:11:33.101376,15.15885757,.04531156,88.9711,195.0305,319.8187,37.0347,0,U,69095,999,430,.34004797E-3,.13915E-2,-.647682E-6
2026-106A,2026-106A,2026-06-11T14:01:35.957280,15.11124512,.00144622,97.5093,244.7696,180.2058,179.9169,0,U,69097,999,413,.38963364E-3,.6482E-4,0
2026-106B,2026-106B,2026-06-11T14:19:07.285440,15.09632687,.00149185,97.5076,244.7477,175.5622,184.5743,0,U,69098,999,413,.2217806E-3,.3513E-4,0
2026-106C,2026-106C,2026-06-11T12:25:12.137376,15.11165576,.00142391,97.5096,244.7068,181.2354,178.8844,0,U,69099,999,412,.39077199E-3,.6509E-4,0
2026-106D,2026-106D,2026-06-11T13:57:19.306944,15.11258704,.00139128,97.5076,244.7666,182.9825,177.1324,0,U,69100,999,413,.88073312E-4,.142E-4,0
2026-106E,2026-106E,2026-06-11T12:14:50.426304,15.11419052,.00164528,97.5075,244.7089,184.8563,175.2511,0,U,69101,999,412,.35164477E-3,.5896E-4,0
DRAGON CRS-34,2026-107A,2026-06-11T12:18:41.484960,15.49175527,.00051194,51.6332,328.1749,173.4651,186.6405,0,U,69103,999,57076,.16294015E-3,.8593E-4,0
QIANFAN-145,2026-108A,2026-06-11T11:32:32.879904,14.08374009,.00166181,89.0124,22.8542,115.7356,244.5546,0,U,69104,999,353,-.12607329E+1,-.2004459E-1,0
QIANFAN-146,2026-108B,2026-06-11T12:52:29.654976,14.14147857,.00170957,89.0111,22.8285,133.8569,226.4034,0,U,69105,999,355,-.11284827E+1,-.1994761E-1,0
QIANFAN-147,2026-108C,2026-06-11T12:51:37.594656,14.13766375,.00154439,89.0114,22.8458,125.6166,234.6462,0,U,69106,999,354,.11525478E-3,.232E-5,0
