QIANFAN-127             
1 69073U 26104A   26162.51389459 -.02118885  00000+0 -13467+1 0  9994
2 69073  88.9859 342.2493 0006401  71.2970 288.8908 14.08092865  4288
QIANFAN-128             
1 69074U 26104B   26162.57798273 -.01491593  00000+0 -93913+0 0  9991
2 69074  88.9856 342.2593 0009602 139.8148 220.3747 14.07854115  4286
QIANFAN-129             
1 69075U 26104C   26162.52916841  .00000066  00000+0  27367-4 0  9993
2 69075  88.9891 342.2303 0006571 116.3247 243.8615 14.14160608  4297
QIANFAN-130             
1 69076U 26104D   26162.56595712 -.01983352  00000+0 -13162+1 0  9993
2 69076  88.9857 342.2579 0004006 138.8152 221.3333 14.05422800  4282
QIANFAN-131             
1 69077U 26104E   26162.53082645 -.02063334  00000+0 -12901+1 0  9997
2 69077  88.9849 342.2512 0006121  71.3149 288.8698 14.08883382  4289
QIANFAN-132             
1 69078U 26104F   26162.51020498 -.02092819  00000+0 -14118+1 0  9996
2 69078  88.9854 342.2688 0007540 129.8307 230.3540 14.04724118  4275
QIANFAN-133             
1 69079U 26104G   26162.48945012 -.02084453  00000+0 -13418+1 0  9998
2 69079  88.9859 342.2656 0005901  96.8281 263.3574 14.07316683  4279
QIANFAN-134             
1 69080U 26104H   26162.48558359 -.02149817  00000+0 -13999+1 0  9994
2 69080  88.9855 342.2642 0007354  85.6513 274.5510 14.06808753  4277
QIANFAN-135             
1 69081U 26104J   26162.54843378 -.02135233  00000+0 -13721+1 0  9990
2 69081  88.9846 342.2545 0004553  81.4999 278.6700 14.07519219  4284
QIANFAN-136             
1 69082U 26104K   26162.47100871 -.02047447  00000+0 -13052+1 0  9993
2 69082  88.9855 342.2619 0007698 102.4583 257.7462 14.07774584  4273
QIANFAN-137             
1 69083U 26104L   26162.58985130  .00000173  00000+0  68472-4 0  9996
2 69083  88.9861 342.2233 0005701 122.4174 237.7570 14.24280478  4309
QIANFAN-138             
1 69084U 26104M   26162.52837202  .00000030  00000+0  90206-5 0  9990
2 69084  88.9741 342.2296 0004302 107.5614 252.6041 14.10331148  4287
QIANFAN-139             
1 69085U 26104N   26162.52203806 -.02084236  00000+0 -13135+1 0  9993
2 69085  88.9856 342.2511 0007848  70.8657 289.3376 14.08484531  4282
QIANFAN-140             
1 69086U 26104P   26162.51679652 -.02081459  00000+0 -13120+1 0  9997
2 69086  88.9860 342.2516 0006807  67.5350 292.6554 14.08470343  4281
QIANFAN-141             
1 69087U 26104Q   26162.51036208 -.02084906  00000+0 -12889+1 0  9993
2 69087  88.9857 342.2488 0009767  70.5119 289.7120 14.09537158  4286
QIANFAN-142             
1 69088U 26104R   26162.57294051 -.02013704  00000+0 -12170+1 0  9993
2 69088  88.9859 342.2398 0008707  65.8133 294.3961 14.10638454  4294
QIANFAN-143             
1 69089U 26104S   26162.48701757 -.02071355  00000+0 -12471+1 0  9990
2 69089  88.9854 342.2456 0008520  56.2136 303.9859 14.10965880  4283
QIANFAN-144             
1 69090U 26104T   26162.49511464 -.02112400  00000+0 -12825+1 0  9997
2 69090  88.9856 342.2471 0008539  44.9828 315.2047 14.10592258  4286
ZHUQUE-2E R/B           
1 69095U 26105A   26162.59135534  .00139150 -64768-6  34005-3 0  9997
2 69095  88.9711 195.0305 0453115 319.8187  37.0347 15.15885757  4307
2026-106A               
1 69097U 26106A   26162.58444395  .00006482  00000+0  38963-3 0  9996
2 69097  97.5093 244.7696 0014462 180.2058 179.9169 15.11124512  4138
2026-106B               
1 69098U 26106B   26162.59661210  .00003513  00000+0  22178-3 0  9998
2 69098  97.5076 244.7477 0014918 175.5622 184.5743 15.09632687  4131
2026-106C               
1 69099U 26106C   26162.51750159  .00006509  00000+0  39077-3 0  9996
2 69099  97.5096 244.7068 0014239 181.2354 178.8844 15.11165576  4120
2026-106D               
1 69100U 26106D   26162.58147346  .00001420  00000+0  88073-4 0  9992
2 69100  97.5076 244.7666 0013912 182.9825 177.1324 15.11258704  4135
2026-106E               
1 69101U 26106E   26162.51030586  .00005896  00000+0  35164-3 0  9996
2 69101  97.5075 244.7089 0016452 184.8563 175.2511 15.11419052  4127
DRAGON CRS-34           
1 69103U 26107A   26162.51298015  .00008593  00000+0  16294-3 0  9992
2 69103  51.6332 328.1749 0005119 173.4651 186.6405 15.49175527570769
QIANFAN-145             
1 69104U 26108A   26162.48093611 -.02004459  00000+0 -12607+1 0  9997
2 69104  89.0124  22.8542 0016618 115.7356 244.5546 14.08374009  3536
QIANFAN-146             
1 69105U 26108B   26162.53645434 -.01994761  00000+0 -11285+1 0  9994
2 69105  89.0111  22.8285 0017095 133.8569 226.4034 14.14147857  3553
QIANFAN-147             
1 69106U 26108C   26162.53585179  .00000232  00000+0  11525-3 0  9992
2 69106  89.0114  22.8458 0015443 125.6166 234.6462 14.13766375  3542
